MONITOR-3 (RS58S)       
1 57180U 23091Q   26166.95391107  .00008913  00000+0  33000-3 0  9991
2 57180  97.5086 230.3907 0013111 104.5400 255.7294 15.27821458164102
MONITOR-4 (RS57S)       
1 57182U 23091S   26166.93303708  .00009014  00000+0  33286-3 0  9990
2 57182  97.5080 230.3410 0013112 104.9940 255.2751 15.27905854164107
MONITOR-2 (RS39S)       
1 57184U 23091U   26166.92923535  .00004312  00000+0  20955-3 0  9992
2 57184  97.5074 225.2202 0012697 114.8645 245.3910 15.18900665163766
SVYATOBOR 1 (RS60S)     
1 57187U 23091X   26166.94505378  .00007503  00000+0  28895-3 0  9994
2 57187  97.5092 230.7551 0010889  98.0523 262.1951 15.26597448164129
HORS 1                  
1 57188U 23091Y   26166.93068023  .00008365  00000+0  32082-3 0  9995
2 57188  97.5070 230.5032 0010358  98.0554 262.1860 15.26704133164123
VIZARD-METEO (RS38S)    
1 57189U 23091Z   26166.90984580  .00013998  00000+0  40111-3 0  9998
2 57189  97.5096 236.3690 0008337  81.5789 278.6399 15.35992407164499
SITRO-AIS 6 (CHIRKIN)   
1 57192U 23091AC  26166.93386987  .00008711  00000+0  34163-3 0  9999
2 57192  97.5070 229.9470 0013100 110.3124 249.9523 15.25914627164090
SITRO-AIS 8 (ANOKHIN)   
1 57193U 23091AD  26166.91161856  .00011849  00000+0  38383-3 0  9998
2 57193  97.5060 232.3821 0011808 103.8160 256.4396 15.32106646164259
SITRO-AIS 7 (FARTUSHNIY)
1 57194U 23091AE  26166.93676283  .00008369  00000+0  33147-3 0  9992
2 57194  97.5068 229.7753 0012942 111.2081 249.0541 15.25602947164085
AVION KALUGA 650        
1 57195U 23091AF  26166.91167846  .00005182  00000+0  24102-3 0  9992
2 57195  97.5091 226.4932 0011884 113.0937 247.1552 15.20341086163831
HORS 2                  
1 57196U 23091AG  26166.92310863  .00011230  00000+0  36697-3 0  9996
2 57196  97.5093 233.9353 0009414  91.6679 268.5641 15.31865118164335
A-SEANSAT-PG1           
1 57197U 23091AH  26166.96948113  .00014911  00000+0  41451-3 0  9999
2 57197  97.5086 236.5246 0008334  88.7064 271.5135 15.36925247164521
SITRO-AIS 10 (BURDAEV)  
1 57199U 23091AK  26166.94852687  .00017032  00000+0  44862-3 0  9995
2 57199  97.5086 237.4609 0007602  84.0283 276.1828 15.38572152164575
SITRO-AIS 9 (SHCHUKIN)  
1 57201U 23091AM  26166.90947375  .00015732  00000+0  42127-3 0  9991
2 57201  97.5083 237.1519 0007831  84.2397 275.9740 15.38080195164554
UTMN 2 (RS27S)          
1 57203U 23091AP  26166.95046118  .00010977  00000+0  35700-3 0  9998
2 57203  97.5091 234.1542 0009319  87.4624 272.7684 15.32026265164351
SITRO-AIS 12 (SMIRENNIY)
1 57204U 23091AQ  26166.96538445  .00016609  00000+0  44041-3 0  9995
2 57204  97.5097 237.6755 0007377  79.0004 281.2070 15.38374971164588
SITRO-AIS 11 (SHEFFER)  
1 57208U 23091AU  26166.91410760  .00016150  00000+0  42250-3 0  9994
2 57208  97.5096 237.8688 0007262  79.2658 280.9404 15.38797540164597
H2SAT (HEINRICH HERTZ)  
1 57213U 23093A   26165.68239000  .00000009  00000+0  00000+0 0  9990
2 57213   0.0576 110.9536 0000860  82.8758 315.5159  1.00272092 10895
KUZGTU 1 (RS47S)        
1 57217U 23091AV  26166.92217443  .00010394  00000+0  36149-3 0  9992
2 57217  97.5067 231.3892 0012336 101.9153 258.3471 15.29838015164183
QIANKUN-1               
1 57422U 23103B   26166.36556735  .00020233  18381-5  23233-4 0  9993
2 57422  96.1468 211.3446 0029378 145.9035 214.4147 16.08420909167009
FENGYUN 3F              
1 57490U 23111A   26166.98770439  .00000039  00000+0  38948-4 0  9998
2 57490  98.6835 237.0187 0001580  94.4671 265.6686 14.19938909148699
HJ-2F                   
1 57519U 23116A   26167.00356238  .00006461  00000+0  28304-3 0  9995
2 57519  97.3836 172.2427 0009952  55.6785 304.5392 15.22306900158571
XRISM                   
1 57800U 23137A   26166.93674826  .00004483  00000+0  24590-3 0  9993
2 57800  31.0032   7.7018 0007958 311.4201  48.5754 15.12457150152670
METEOR-M2 4             
1 59051U 24039A   26166.98761850 -.00000007  00000+0  16508-4 0  9994
2 59051  98.7010 126.3007 0007217 164.3484 195.7918 14.22429407119098
GRBBETA                 
1 60237U 24128C   26166.49446256  .00002913  00000+0  20649-3 0  9994
2 60237  61.9889 222.2055 0040850 134.3380 226.1074 15.06630585106017
TRANSPORTER-11 OBJECT A 
1 60468U 24149A   26166.71737711  .00007210  00000+0  22946-3 0  9994
2 60468  97.3738 246.6513 0002636 199.1103 161.0040 15.32886416101830
WARATAH SEED-1          
1 60469U 24149B   26166.93840547  .00010427  00000+0  30047-3 0  9996
2 60469  97.3695 247.5115 0001418 181.8336 178.2903 15.35918999101927
PHISAT 2                
1 60470U 24149C   26166.93623232  .00009363  00000+0  31457-3 0  9991
2 60470  97.3762 246.1588 0000910 175.6215 184.5035 15.31053453101800
LEMUR-2-TOMATOKECHUP    
1 60471U 24149D   26166.80442274  .00009203  00000+0  26475-3 0  9990
2 60471  97.3807 248.8473 0001290 178.9166 181.2081 15.36010155101954
